IRIDIUM 57 [-]          
1 25273U 98019B   24067.49166055  .00000545  00000+0  18429-3 0  9991
2 25273  86.4012 340.7221 0002136  86.8642 273.2799 14.35110308357838
IRIDIUM 63 [-]          
1 25286U 98021B   24067.62304871  .00000555  00000+0  18570-3 0  9991
2 25286  86.3934 277.5723 0002049  83.1224 277.0206 14.35627550356888
IRIDIUM 69 [-]          
1 25319U 98026A   24067.57162292  .00000615  00000+0  18977-3 0  9994
2 25319  86.3949 292.2950 0004196 105.0666 255.0997 14.39821151355896
IRIDIUM 71 [-]          
1 25320U 98026B   24067.59422298  .00000636  00000+0  19519-3 0  9999
2 25320  86.3935 287.0661 0002758 136.9954 223.1461 14.40146984356416
IRIDIUM 73 [-]          
1 25344U 98032C   24067.54396496  .00000983  00000+0  24703-3 0  9993
2 25344  86.4385 244.6395 0002662  98.2688 261.8819 14.50330384362898
IRIDIUM 82 [-]          
1 25467U 98051A   24067.46145626  .00010563  00000+0  56844-3 0  9994
2 25467  86.3901 333.8987 0133970 233.4349 125.4498 15.07201675353159
IRIDIUM 2 [-]           
1 25527U 98066A   24067.29280838  .00079555  00000+0  10415-2 0  9992
2 25527  85.5151   8.7598 0006026  66.4520 293.7374 15.58303262391926
